#dP2024  3  2  0  0  0.00000000      96 __u+U IGS20 FIT  IAC
## 2303 518400.00000000   900.00000000 60371 0.0000000000000
+  119   C06C07C08C09C10C11C12C13C14C16C19C20C21C22C23C24C25
+        C26C27C28C29C30C32C33C34C35C36C37C38C39C40C41C42C43
+        C44C45C46E02E03E04E05E07E08E09E10E11E12E13E14E15E18
+        E19E21E24E25E26E27E30E31E33E34E36G01G02G03G04G05G06
+        G07G08G09G10G11G12G13G14G15G16G17G18G19G20G21G22G23
+        G24G25G26G27G28G29G30G31G32J02J03J04R01R02R03R04R05
+        R07R08R09R11R12R13R14R15R16R17R18R19R20R21R22R24R26
++         8  9  8  9  8  8  7  7  7  9  6  6  7  7  7  6  7
++         7  7  8  7  8  8  7  7  5  8  8  9  9  9  8  7  9
++         7  8  7  7  7  6  6  6  7  6  7  6  7  7  6  7  6
++         7  7  5  6  6  8  6  6  8  7  7  6  7  6  7  7  7
++         7  7  7  7  7  7  6  7  6  7  7  6  7  7  6  6  7
++         6  7  5  6  6  7  7  7  7  7  7  0  7  7  7  6  7
++         8  7  8  7  8  7  7  6  6  7  6  7  7  7  7  6  7
%c M  cc GPS ccc cccc cccc cccc cccc ccccc ccccc ccccc ccccc
%c cc cc ccc ccc cccc cccc cccc cccc ccccc ccccc ccccc ccccc
%f  0.0000000  0.000000000  0.00000000000  0.000000000000000
%f  0.0000000  0.000000000  0.00000000000  0.000000000000000
%i    0    0    0    0      0      0      0      0         0
%i    0    0    0    0      0      0      0      0         0
/* INFORMATION & ANALYSIS CENTER (IAC)      ULTRA-RAPID DATA
/* S/V CLOCKS ARE ALIGNED TO GNSS TIME                      
/* G:C1WC2W R:C1PC2P E:C1XC5X C:C2IC6I J:C1CC2S             
/* PCV:IGS20_2290 OL/AL:FES2004  NONE     YN ORB:CoN CLK:CoN
*  2024 03 02 21 30  0.00000000
PC06  -1098.816777  30083.720168  29689.902329    246.586582
PC07 -17211.391916  29661.449160 -24564.230570   -892.510952
PC08 -11836.247177  40272.027777  -2464.390931     -5.664818
PC09   5547.414115  34024.487657  25133.445265   -566.951193
PC10  -9481.937112  29889.849902 -28066.060344     61.717942
PC11  23176.062941  15247.204313  -2944.333558    439.664681
PC12   8404.068138  18822.690255 -18775.444119   -204.765706
PC13  -5806.653908  41226.260838   5793.088404    421.954417
PC14  16332.229359   6882.699597  21558.572867    316.674512
PC16  -3961.959272  27947.316225  31699.399000   -373.074468
PC19 -22466.499153   1215.814277 -16495.807803   -922.096104
PC20  -9326.279572 -12550.898164 -23098.192806   -217.941573
PC21 -10805.006439  19986.055393  16242.288378   -961.486171
PC22 -23513.164492  15058.326235    -36.273354    -89.150836
PC23  14253.481166 -12390.455923 -20549.921672   -777.965692
PC24   8183.229527  24887.592644  -9597.687349    936.033326
PC25  16050.455222   7938.106719 -21412.975029    339.870525
PC26  -3318.831665  26705.678732   7297.483684   -257.201022
PC27   1120.315487 -16913.553115  22145.177593    279.136187
PC28  17570.524414  -7001.405204  20523.898122    212.656122
PC29 -26110.998229  -8308.207155  -5274.454994    249.316323
PC30 -17112.365334 -18009.880586  12675.734592    -32.549053
PC32  10718.588126 -20057.703803 -16141.382970   -576.446778
PC33  22397.165014  -1206.541296  16599.538394   -953.687503
PC34  18374.228111  17678.576054 -11384.245521    381.573958
PC35 -17407.251232   7651.761772 -20424.805344    420.450042
PC36 -15792.355988  -8807.734623  21272.234671      4.820826
PC37   4193.363624 -26510.224503  -7686.174419   -940.772889
PC38 -15233.139715  37874.718051 -10211.869625    140.297532
PC39  -8846.919803  23752.806999  33787.955203     -7.395855
PC40 -24222.503532  23458.859177 -25483.632791    -59.006768
PC41  23734.986546 -14634.312505    945.126023   -899.152807
PC42   7724.549256  13686.843205  23108.467082   -449.754378
PC43  26071.726339   8987.534911   4352.669461     62.609759
PC44   -684.359330  17044.326104 -22106.341093    401.458877
PC45 -14120.442817  12491.513335  20558.178296    -73.476884
PC46  -8543.309664 -24477.788781  10365.505159   -128.429769
PE02 -12378.222494  26500.521367  -4490.775985    107.996935
PE03  -9556.139391  15974.652517  23016.958533    -97.594095
PE04 -13341.792646 -15241.426377 -21573.265803   -340.453271
PE05 -26479.576132   7367.057293  10995.378083   4725.366969
PE07  27903.605500   5880.326613   7929.753836   -106.763056
PE08  12561.810027  15325.118379  21989.289671   -232.717089
PE09 -27875.779728  -5881.107176  -8050.782315   -356.317507
PE10 -18111.912562 -22108.446361  -7700.462790   -606.275988
PE11 -20112.506049 -13773.132509 -16783.599434   3207.027890
PE12 -13550.490788 -26257.634994   1508.607208   -930.993875
PE13  20072.058759  14422.568716  16304.894246    -20.381700
PE14  22232.801293   8169.093728  -8345.189664     55.343823
PE15  13273.559501  26385.910940  -2055.531026    -88.984044
PE18 -31701.225789   -195.090574  -2231.504722    390.750286
PE19  12017.443652 -15233.871140 -22343.370413   -507.402461
PE21  20613.249503 -16656.567659 -13199.506072   -581.909206
PE24 -17019.320892  -3868.408354  23881.693978   -629.384604
PE25 -20662.930828  16319.136952  13512.672659      1.612166
PE26  14846.449694  -6502.386244  24775.419282    385.076773
PE27  17196.048341   3369.780173 -23864.161922   -288.833728
PE30   3498.449476  21345.684957 -20216.561206    -54.627117
PE31  -3671.335065 -21194.112281  20336.318328    -17.314887
PE33   1654.229150 -22382.645477  19302.252437      8.438686
PE34  -1172.565517  22713.678945 -18946.023393    -97.773763
PE36 -15022.883801   5785.189247 -24833.947633   -193.764173
PG01  16649.945171   2581.724123  20284.158937    172.011472
PG02  19832.704698   9733.098257  15423.541590   -476.604234
PG03  16960.887061  -2674.363734  20086.556747    228.295728
PG04  26498.345564   2011.009917   1794.581780    305.440295
PG05 -11196.266702 -10793.867812 -21690.997676   -163.923761
PG06  -3467.695958 -23025.725924  12737.423386    384.451100
PG07  11918.829829  -9594.642529 -21187.531584    -75.183494
PG08  23874.597983   6431.719770 -10354.631481     25.819435
PG09  22879.802489  -8280.913569 -10798.039965    111.121858
PG10  -9950.498786  23996.902608   4832.877878      0.922927
PG11 -11603.573480 -23894.293979   1141.758412   -594.289072
PG12 -17179.030094    776.240807  19937.508671   -483.433511
PG13 -16693.870525 -13364.497998 -16097.894682    630.641786
PG14  13098.831219 -22967.034435    924.750802    340.394907
PG15 -24189.497046  -4303.433062 -10833.243233    133.541111
PG16   6099.560824  16158.642352 -20386.559876   -350.146896
PG17  12297.782235 -13074.102520  20051.161106    715.100484
PG18 -10844.514904  10751.051720 -21697.340757   -567.546663
PG19   1614.338362 -14851.169203  21771.334393    448.491155
PG20  -3713.911072 -21569.792961 -15095.735592    385.395853
PG21  20031.261598  14695.529209  11146.790613    132.861655
PG22   8581.027971 -23685.414542   9293.842976     22.166829
PG23 -16199.097014  19466.753128  -7652.605972    168.352189
PG24 -20078.587865 -11990.400667  12556.104526   -440.545418
PG25 -18339.614393  12109.997044  14379.411055    490.226442
PG26   -862.076457  23387.582485 -12352.223079    184.066746
PG27  14009.494841  12975.742399 -18917.865473     -8.737109
PG28   1864.788623  22077.183860  14631.353426   -150.397543
PG29 -24423.408360   4762.708275  -9482.546785   -605.757407
PG30   3804.165273 -19274.998962 -17618.316224   -425.118096
PG31   8766.314936  24122.397313   5745.019531   -227.913063
PG32  -7971.585580  14658.661158  20822.303180   -614.310475
PJ02 -34632.045774  23825.989702   8614.798365     -2.515038
PJ03 -22192.084448  19656.027908 -25370.258291     -0.222878
PJ04 -26189.919054  32778.761439  10301.694195     50.782713
PR01 -23401.237420   6222.890359  -8035.095126     78.646369
PR02 -19868.531319  12775.075912   9593.882180    -22.534509
PR03  -4661.424808  12875.485389  21559.847478     95.621369
PR04  12446.715047   5765.171103  21543.783915    225.869985
PR05  23120.299773  -4233.328993   9955.861445    127.802664
PR07   3907.789280 -12654.125951 -21764.350141     77.067544
PR08 -12721.091145  -5601.796586 -21314.483113    -74.618304
PR09   8966.175527 -19234.891248 -14077.663510    173.131318
PR11  -5840.647065 -18279.112821  16802.493967     32.536724
PR12 -11241.982543   1422.241768  22869.837967     37.363486
PR13  -9738.769414  17305.165205  15988.125543    -44.909238
PR14  -1852.307753  25336.724280  -2401.047335     26.155092
PR15   6415.653288  17152.336701 -17746.522380     81.709623
PR16  11053.660903  -1165.415500 -22954.318871     23.708770
PR17   7269.785982  16243.749247 -18251.274398     65.737456
PR18  18515.874750  17117.819143  -4030.705396    130.186236
PR19  20337.316182  10931.933227  10848.041758   -267.906170
PR20   9663.332529  -5235.975256  23031.909779   -109.161263
PR21  -7377.434803 -16336.994853  18156.517174    -81.426081
PR22 -18404.243669 -17399.796128   2981.117385    110.853333
PR24  -9219.075605   6452.265233 -22875.089921    -46.199258
PR26 -11887.611960  -6078.227057 -21713.892407   -195.598267
EOF
